GLOBALSTAR M069         
1 31573U 07020C   26188.03724610 -.00000072  00000+0  19240-3 0  9994
2 31573  51.9996 195.9424 0001876 191.7859 202.4465 12.23472106881239
GLOBALSTAR M072         
1 31574U 07020D   26188.03513550 -.00000080  00000+0  53259-4 0  9992
2 31574  51.9943  47.4055 0001614  18.7253 131.3324 11.91658655877349
GLOBALSTAR M066         
1 32265U 07048C   26187.72463889 -.00000046  00000+0  41400-3 0  9990
2 32265  51.9608   1.8266 0005642  85.1113 288.6771 12.30388599862630
GLOBALSTAR M079         
1 37188U 10054A   26188.03045366 -.00000100  00000+0  19121-4 0  9998
2 37188  52.0047  48.2647 0001071  64.0932  83.4218 12.62266480725053
GLOBALSTAR M074         
1 37189U 10054B   26187.03398463 -.00000098  00000+0  30384-4 0  9997
2 37189  52.0026  50.5602 0000832  79.0429  98.2745 12.62261915725539
GLOBALSTAR M076         
1 37190U 10054C   26187.91500122 -.00000098  00000+0  32941-4 0  9994
2 37190  52.0038  48.0833 0001061  76.5581  26.0722 12.62262107725367
GLOBALSTAR M077         
1 37191U 10054D   26188.26643811 -.00000068  00000+0  18138-3 0  9995
2 37191  51.9942 128.3305 0002397 209.9382 317.0362 11.67547897723480
GLOBALSTAR M075         
1 37192U 10054E   26188.17924495 -.00000089  00000+0  81765-4 0  9996
2 37192  51.9946  89.3214 0000614  51.6593 112.6591 12.62267713724460
GLOBALSTAR M073         
1 37193U 10054F   26188.46554475 -.00000094  00000+0  53254-4 0  9994
2 37193  52.0074   2.5655 0001105  85.9656 298.3537 12.62266892726491
GLOBALSTAR M083         
1 37739U 11033A   26188.40290536 -.00000090  00000+0  79453-4 0  9992
2 37739  51.9875 310.9578 0000883  97.4192 303.4404 12.62263878695508
GLOBALSTAR M088         
1 37740U 11033B   26188.13804429 -.00000098  00000+0  31808-4 0  9996
2 37740  52.0185 218.2412 0000228 155.2772 240.0255 12.62269257691012
GLOBALSTAR M091         
1 37741U 11033C   26187.99162576 -.00000098  00000+0  33767-4 0  9996
2 37741  51.9967 181.6215 0000209   1.5579  28.7919 12.62264140691788
GLOBALSTAR M085         
1 37742U 11033D   26188.24146214 -.00000083  00000+0  11725-3 0  9990
2 37742  52.0115 132.1699 0000598  24.5237 121.7098 12.62264287692325
GLOBALSTAR M081         
1 37743U 11033E   26188.35285831 -.00000090  00000+0  77890-4 0  9996
2 37743  51.9945 134.2440 0000498  44.6716 127.7974 12.62265340692483
GLOBALSTAR M089         
1 37744U 11033F   26188.14961659 -.00000094  00000+0  53348-4 0  9999
2 37744  51.9930  89.0185 0000623  82.0290  67.4631 12.62267531693300
GLOBALSTAR M084         
1 38040U 11080A   26188.37488938 -.00000092  00000+0  63529-4 0  9990
2 38040  52.0030 315.8246 0000995 118.7844 274.7945 12.62267798671318
GLOBALSTAR M080         
1 38041U 11080B   26188.34276368 -.00000094  00000+0  54472-4 0  9999
2 38041  52.0077 317.6474 0000410  83.7537 293.8023 12.62265493671437
GLOBALSTAR M082         
1 38042U 11080C   26188.28285993 -.00000100  00000+0  20852-4 0  9990
2 38042  52.0074 273.3340 0000296 111.1473 283.8055 12.62263899672132
GLOBALSTAR M092         
1 38043U 11080D   26188.49317626 -.00000086  00000+0  10102-3 0  9992
2 38043  52.0099   3.0903 0000836  91.3768 299.0143 12.62267545670619
GLOBALSTAR M090         
1 38044U 11080E   26187.53447407 -.00000087  00000+0  92001-4 0  9998
2 38044  52.0122 269.5743 0000506 106.9061   4.4358 12.62252898672153
GLOBALSTAR M086         
1 38045U 11080F   26188.16754265 -.00000088  00000+0  90750-4 0  9992
2 38045  51.9893 267.5438 0001643  99.8007 272.6491 12.62287691672188
GLOBALSTAR M097         
1 39072U 13005A   26188.35485173 -.00000092  00000+0  64434-4 0  9997
2 39072  52.0016 181.9435 0000250  37.9806 322.1078 12.62271352619457
GLOBALSTAR M093         
1 39073U 13005B   26188.01131482 -.00000093  00000+0  57576-4 0  9992
2 39073  52.0076 176.3431 0000437  34.1994 325.8901 12.62266212619366
GLOBALSTAR M094         
1 39074U 13005C   26188.16952996 -.00000099  00000+0  24859-4 0  9994
2 39074  51.9960  89.9590 0000883  48.1361 311.9581 12.62268512620996
GLOBALSTAR M096         
1 39075U 13005D   26188.26224568 -.00000092  00000+0  68255-4 0  9994
2 39075  52.0056 138.4928 0000554  27.2988 332.7908 12.62265617619926
GLOBALSTAR M078         
1 39076U 13005E   26188.47289917 -.00000096  00000+0  42960-4 0  9996
2 39076  51.9846 221.8358 0000654 314.6052  45.4762 12.62260006618575
GLOBALSTAR M095         
1 39077U 13005F   26188.02449083 -.00000095  00000+0  47916-4 0  9995
2 39077  52.0055 220.8332 0000222   1.8049 358.2819 12.62263965618376
GLOBALSTAR M087         
1 52888U 22064A   26188.43355799 -.00000101  00000+0  15450-4 0  9996
2 52888  52.0012   0.8137 0000954  73.9510 286.1462 12.62269303193696
